{"fetched_at":"2026-03-29T02:12:04Z","count":15717,"tles":[{"name":"STARLINK-30817","line1":"1 58238U 23171J   26087.52075107  .00001148  00000+0  52444-4 0  9996","line2":"2 58238  43.0007 178.9507 0001102 246.1101 113.9635 15.26750973132614","category":"Starlink"}]}